{
  "type": "FeatureCollection",
  "features": [
    {
      "type": "Feature",
      "properties": {
        "norad_id": 35052,
        "name": "IRIDIUM 33 DEB",
        "group": "iridium-33-debris",
        "lat": -75.29419047406846,
        "lon": 6.788007245518305,
        "alt_km": 780.2778816273039,
        "timestamp": "2025-12-11T15:53:39.928725+00:00",
        "meta_object_name": "IRIDIUM 33 DEB",
        "meta_object_id": "1997-051NY",
        "meta_epoch": "2025-12-10T20:12:46.550016",
        "meta_mean_motion": 14.38488803,
        "meta_eccentricity": 0.0013692,
        "meta_inclination": 86.3312,
        "meta_ra_of_asc_node": 21.2899,
        "meta_arg_of_pericenter": 90.3566,
        "meta_mean_anomaly": 269.9201,
        "meta_ephemeris_type": 0,
        "meta_classification_type": "U",
        "meta_norad_cat_id": 35052,
        "meta_element_set_no": 999,
        "meta_rev_at_epoch": 87248,
        "meta_bstar": 0.00026897,
        "meta_mean_motion_dot": 8.42e-06,
        "meta_mean_motion_ddot": 0,
        "tle_line1": "1 35052U 97051NY  25344.84220544  .00000842  00000+0  26897-3 0  9992",
        "tle_line2": "2 35052  86.3312  21.2899 0013692  90.3566 269.9201 14.38488803872486"
      },
      "geometry": {
        "type": "Point",
        "coordinates": [
          6.788007245518305,
          -75.29419047406846
        ]
      }
    },
    {
      "type": "Feature",
      "properties": {
        "norad_id": 35080,
        "name": "IRIDIUM 33 DEB",
        "group": "iridium-33-debris",
        "lat": -83.02441379016335,
        "lon": 20.05054857762508,
        "alt_km": 620.0762264713358,
        "timestamp": "2025-12-11T15:53:39.928735+00:00",
        "meta_object_name": "IRIDIUM 33 DEB",
        "meta_object_id": "1997-051PF",
        "meta_epoch": "2025-12-10T22:29:41.830944",
        "meta_mean_motion": 14.85676849,
        "meta_eccentricity": 0.0060994,
        "meta_inclination": 86.2065,
        "meta_ra_of_asc_node": 53.2369,
        "meta_arg_of_pericenter": 185.895,
        "meta_mean_anomaly": 174.1564,
        "meta_ephemeris_type": 0,
        "meta_classification_type": "U",
        "meta_norad_cat_id": 35080,
        "meta_element_set_no": 999,
        "meta_rev_at_epoch": 69661,
        "meta_bstar": 0.010958,
        "meta_mean_motion_dot": 0.00099464,
        "meta_mean_motion_ddot": 0,
        "tle_line1": "1 35080U 97051PF  25344.93728971  .00099464  00000+0  10958-1 0  9997",
        "tle_line2": "2 35080  86.2065  53.2369 0060994 185.8950 174.1564 14.85676849696611"
      },
      "geometry": {
        "type": "Point",
        "coordinates": [
          20.05054857762508,
          -83.02441379016335
        ]
      }
    },
    {
      "type": "Feature",
      "properties": {
        "norad_id": 35297,
        "name": "IRIDIUM 33 DEB",
        "group": "iridium-33-debris",
        "lat": 14.263848833060946,
        "lon": -117.69984671546113,
        "alt_km": 731.382650704707,
        "timestamp": "2025-12-11T15:53:39.928746+00:00",
        "meta_object_name": "IRIDIUM 33 DEB",
        "meta_object_id": "1997-051PM",
        "meta_epoch": "2025-12-06T00:31:29.302752",
        "meta_mean_motion": 14.45108459,
        "meta_eccentricity": 0.00170329,
        "meta_inclination": 86.3867,
        "meta_ra_of_asc_node": 65.6268,
        "meta_arg_of_pericenter": 161.2449,
        "meta_mean_anomaly": 198.9384,
        "meta_ephemeris_type": 0,
        "meta_classification_type": "U",
        "meta_norad_cat_id": 35297,
        "meta_element_set_no": 999,
        "meta_rev_at_epoch": 70329,
        "meta_bstar": 0.0012426888,
        "meta_mean_motion_dot": 4.371e-05,
        "meta_mean_motion_ddot": 0,
        "tle_line1": "1 35297U 97051PM  25340.02186693  .00004371  00000+0  12427-2 0  9999",
        "tle_line2": "2 35297  86.3867  65.6268 0017032 161.2449 198.9384 14.45108459703293"
      },
      "geometry": {
        "type": "Point",
        "coordinates": [
          -117.69984671546113,
          14.263848833060946
        ]
      }
    },
    {
      "type": "Feature",
      "properties": {
        "norad_id": 35299,
        "name": "IRIDIUM 33 DEB",
        "group": "iridium-33-debris",
        "lat": 64.67212366998822,
        "lon": -154.22797875149934,
        "alt_km": 707.9550853292822,
        "timestamp": "2025-12-11T15:53:39.928766+00:00",
        "meta_object_name": "IRIDIUM 33 DEB",
        "meta_object_id": "1997-051PP",
        "meta_epoch": "2025-12-10T21:51:11.079360",
        "meta_mean_motion": 14.40845686,
        "meta_eccentricity": 0.0058943,
        "meta_inclination": 86.2883,
        "meta_ra_of_asc_node": 33.9824,
        "meta_arg_of_pericenter": 108.2071,
        "meta_mean_anomaly": 69.9595,
        "meta_ephemeris_type": 0,
        "meta_classification_type": "U",
        "meta_norad_cat_id": 35299,
        "meta_element_set_no": 999,
        "meta_rev_at_epoch": 86304,
        "meta_bstar": 0.0011418,
        "meta_mean_motion_dot": 3.753e-05,
        "meta_mean_motion_ddot": 0,
        "tle_line1": "1 35299U 97051PP  25344.91054490  .00003753  00000+0  11418-2 0  9994",
        "tle_line2": "2 35299  86.2883  33.9824 0058943 108.2071  69.9595 14.40845686863042"
      },
      "geometry": {
        "type": "Point",
        "coordinates": [
          -154.22797875149934,
          64.67212366998822
        ]
      }
    },
    {
      "type": "Feature",
      "properties": {
        "norad_id": 35480,
        "name": "IRIDIUM 33 DEB",
        "group": "iridium-33-debris",
        "lat": -0.8815005083783249,
        "lon": -154.56422041857,
        "alt_km": 726.4118805527041,
        "timestamp": "2025-12-11T15:53:39.928784+00:00",
        "meta_object_name": "IRIDIUM 33 DEB",
        "meta_object_id": "1997-051QA",
        "meta_epoch": "2025-12-09T19:59:43.135296",
        "meta_mean_motion": 14.49744632,
        "meta_eccentricity": 0.00159269,
        "meta_inclination": 86.357,
        "meta_ra_of_asc_node": 26.1722,
        "meta_arg_of_pericenter": 113.2937,
        "meta_mean_anomaly": 246.9945,
        "meta_ephemeris_type": 0,
        "meta_classification_type": "U",
        "meta_norad_cat_id": 35480,
        "meta_element_set_no": 999,
        "meta_rev_at_epoch": 86989,
        "meta_bstar": 0.0009193458,
        "meta_mean_motion_dot": 3.565e-05,
        "meta_mean_motion_ddot": 0,
        "tle_line1": "1 35480U 97051QA  25343.83313814  .00003565  00000+0  91935-3 0  9998",
        "tle_line2": "2 35480  86.3570  26.1722 0015926 113.2937 246.9945 14.49744632869893"
      },
      "geometry": {
        "type": "Point",
        "coordinates": [
          -154.56422041857,
          -0.8815005083783249
        ]
      }
    },
    {
      "type": "Feature",
      "properties": {
        "norad_id": 35484,
        "name": "IRIDIUM 33 DEB",
        "group": "iridium-33-debris",
        "lat": 23.339559335914743,
        "lon": 171.6752060942307,
        "alt_km": 556.654365759925,
        "timestamp": "2025-12-11T15:53:39.928795+00:00",
        "meta_object_name": "IRIDIUM 33 DEB",
        "meta_object_id": "1997-051QE",
        "meta_epoch": "2025-12-11T07:11:11.450112",
        "meta_mean_motion": 14.98503136,
        "meta_eccentricity": 0.00234835,
        "meta_inclination": 86.3602,
        "meta_ra_of_asc_node": 353.4188,
        "meta_arg_of_pericenter": 129.6902,
        "meta_mean_anomaly": 230.6406,
        "meta_ephemeris_type": 0,
        "meta_classification_type": "U",
        "meta_norad_cat_id": 35484,
        "meta_element_set_no": 999,
        "meta_rev_at_epoch": 61994,
        "meta_bstar": 0.0054521834,
        "meta_mean_motion_dot": 0.00066108,
        "meta_mean_motion_ddot": 0,
        "tle_line1": "1 35484U 97051QE  25345.29943808  .00066108  00000+0  54522-2 0  9998",
        "tle_line2": "2 35484  86.3602 353.4188 0023483 129.6902 230.6406 14.98503136619942"
      },
      "geometry": {
        "type": "Point",
        "coordinates": [
          171.6752060942307,
          23.339559335914743
        ]
      }
    },
    {
      "type": "Feature",
      "properties": {
        "norad_id": 35488,
        "name": "IRIDIUM 33 DEB",
        "group": "iridium-33-debris",
        "lat": -34.394209545733865,
        "lon": -61.14702514893962,
        "alt_km": 622.555853441736,
        "timestamp": "2025-12-11T15:53:39.928805+00:00",
        "meta_object_name": "IRIDIUM 33 DEB",
        "meta_object_id": "1997-051QJ",
        "meta_epoch": "2025-12-10T07:39:38.233728",
        "meta_mean_motion": 14.82954928,
        "meta_eccentricity": 0.00301497,
        "meta_inclination": 86.3246,
        "meta_ra_of_asc_node": 301.994,
        "meta_arg_of_pericenter": 50.6144,
        "meta_mean_anomaly": 309.7742,
        "meta_ephemeris_type": 0,
        "meta_classification_type": "U",
        "meta_norad_cat_id": 35488,
        "meta_element_set_no": 999,
        "meta_rev_at_epoch": 88230,
        "meta_bstar": 0.0023681949,
        "meta_mean_motion_dot": 0.0001943,
        "meta_mean_motion_ddot": 0,
        "tle_line1": "1 35488U 97051QJ  25344.31919252  .00019430  00000+0  23682-2 0  9999",
        "tle_line2": "2 35488  86.3246 301.9940 0030149  50.6144 309.7742 14.82954928882307"
      },
      "geometry": {
        "type": "Point",
        "coordinates": [
          -61.14702514893962,
          -34.394209545733865
        ]
      }
    }
  ]
}